[{"OBJECT_NAME":"STARLINK-36508","OBJECT_ID":"2026-005G","EPOCH":"2026-03-09T18:21:01.929024","MEAN_MOTION":15.27606918,"ECCENTRICITY":0.00029463,"INCLINATION":43.0018,"RA_OF_ASC_NODE":237.9375,"ARG_OF_PERICENTER":282.2963,"MEAN_ANOMALY":77.7559,"EPHEMERIS_TYPE":0,"CLASSIFICATION_TYPE":"U","NORAD_CAT_ID":67410,"ELEMENT_SET_NO":999,"REV_AT_EPOCH":870,"BSTAR":0.0012482144,"MEAN_MOTION_DOT":0.00034276,"MEAN_MOTION_DDOT":0},{"OBJECT_NAME":"CZ-6A DEB","OBJECT_ID":"2022-151EM","EPOCH":"2026-03-09T21:12:10.844640","MEAN_MOTION":15.1479521,"ECCENTRICITY":0.00732342,"INCLINATION":98.809,"RA_OF_ASC_NODE":212.6624,"ARG_OF_PERICENTER":10.5605,"MEAN_ANOMALY":349.714,"EPHEMERIS_TYPE":0,"CLASSIFICATION_TYPE":"U","NORAD_CAT_ID":54413,"ELEMENT_SET_NO":999,"REV_AT_EPOCH":17915,"BSTAR":0.0020661814,"MEAN_MOTION_DOT":0.00041137,"MEAN_MOTION_DDOT":0}]
